GPS BIIA-23 (PRN 18)    
1 22877U 93068A   18340.57172209 -.00000076  00000-0  00000+0 0  9994
2 22877  54.5474  76.4359 0147468  78.0875 234.6834  2.00570449184000
GPS BIIR-2  (PRN 13)    
1 24876U 97035A   18340.53475362  .00000067  00000-0  00000+0 0  9994
2 24876  55.4703 206.0105 0034435  79.6741 280.8097  2.00564253156610
GPS BIIR-3  (PRN 11)    
1 25933U 99055A   18341.20659156 -.00000090  00000-0  00000+0 0  9990
2 25933  52.0045  54.1627 0165196 106.0399 306.7224  2.00563206140431
GPS BIIR-4  (PRN 20)    
1 26360U 00025A   18340.67601413  .00000013  00000-0  00000+0 0  9991
2 26360  53.2601 132.4699 0042980 127.3066 308.4756  2.00563195136114
GPS BIIR-5  (PRN 28)    
1 26407U 00040A   18341.36090966 -.00000079  00000-0  00000+0 0  9995
2 26407  56.3833 324.1151 0198224 274.4720 272.1302  2.00561530134803
GPS BIIR-6  (PRN 14)    
1 26605U 00071A   18340.65191177  .00000068  00000-0  00000+0 0  9993
2 26605  55.0440 203.5301 0102017 248.9320  55.3265  2.00565957132395
GPS BIIR-8  (PRN 16)    
1 27663U 03005A   18340.72286655 -.00000080  00000-0  00000+0 0  9997
2 27663  56.4461 323.9061 0101300  28.5906 176.5685  2.00556413116159
GPS BIIR-9  (PRN 21)    
1 27704U 03010A   18341.46350948 -.00000072  00000-0  00000+0 0  9999
2 27704  54.2208  75.9304 0248003 273.6781  71.0312  2.00574895114978
GPS BIIR-10 (PRN 22)    
1 28129U 03058A   18340.73029805  .00000017  00000-0  00000+0 0  9995
2 28129  53.0728 135.2896 0072205 276.4706  82.6867  2.00566925109654
GPS BIIR-11 (PRN 19)    
1 28190U 04009A   18340.16581363 -.00000085  00000-0  00000+0 0  9995
2 28190  56.2264  24.7316 0091817  75.2960 237.3248  2.00571377107824
GPS BIIR-12 (PRN 23)    
1 28361U 04023A   18340.71557619  .00000070  00000-0  00000+0 0  9992
2 28361  54.0512 198.0926 0127888 227.9654  34.9301  2.00562049105917
GPS BIIR-13 (PRN 02)    
1 28474U 04045A   18340.39107719 -.00000077  00000-0  00000+0 0  9995
2 28474  54.5835  75.6547 0187692 256.6482 135.2880  2.00571270103271
GPS BIIRM-1 (PRN 17)    
1 28874U 05038A   18340.63869552 -.00000085  00000-0  00000+0 0  9998
2 28874  56.3595  22.0433 0131557 259.8057  59.8327  2.00566370 96688
GPS BIIRM-2 (PRN 31)    
1 29486U 06042A   18340.65017104 -.00000026  00000-0  00000+0 0  9999
2 29486  55.0896 260.7581 0091216 354.9674 249.9586  2.00549478 89391
GPS BIIRM-3 (PRN 12)    
1 29601U 06052A   18339.75250739 -.00000079  00000-0  00000+0 0  9999
2 29601  56.4245 322.8606 0069365  57.3781 303.2856  2.00556888 88299
GPS BIIRM-4 (PRN 15)    
1 32260U 07047A   18339.57154769  .00000077  00000-0  00000+0 0  9992
2 32260  53.1751 194.0054 0109397  41.5944 319.3231  2.00571104 81669
GPS BIIRM-5 (PRN 29)    
1 32384U 07062A   18340.37557897 -.00000084  00000-0  00000+0 0  9994
2 32384  56.4383  22.6769 0003950  94.9290 262.8504  2.00573501 80416
GPS BIIRM-6 (PRN 07)    
1 32711U 08012A   18339.97728098 -.00000031  00000-0  00000+0 0  9993
2 32711  54.8263 260.0212 0122502 218.7476 140.3949  2.00568746 78603
GPS BIIRM-8 (PRN 05)    
1 35752U 09043A   18340.70007869  .00000024  00000-0  00000+0 0  9996
2 35752  54.3670 137.7109 0054402  39.6772 147.7240  2.00573318 68194
GPS BIIF-1  (PRN 25)    
1 36585U 10022A   18339.57865398 -.00000080  00000-0  00000+0 0  9995
2 36585  55.7094 319.3059 0075253  47.4051 160.4348  2.00577719 62419
GPS BIIF-2  (PRN 01)    
1 37753U 11036A   18341.20794663 -.00000069  00000-0  00000+0 0  9995
2 37753  55.7816  79.3545 0080424  38.6530 347.3105  2.00565108 54138
GPS BIIF-3  (PRN 24)    
1 38833U 12053A   18339.15926563 -.00000034  00000-0  00000+0 0  9994
2 38833  53.8590 256.4443 0076560  30.4572 330.0120  2.00570088 45154
GPS BIIF-4  (PRN 27)    
1 39166U 13023A   18340.02186484 -.00000084  00000-0  00000+0 0  9995
2 39166  56.0497  18.9075 0061533  22.5498 337.7800  2.00560834 40714
GPS BIIF-5  (PRN 30)    
1 39533U 14008A   18340.01983783 -.00000035  00000-0  00000+0 0  9999
2 39533  53.9971 261.7814 0036109 192.2134 167.7221  2.00565413 35087
GPS BIIF-6  (PRN 06)    
1 39741U 14026A   18339.80154601 -.00000075  00000-0  00000+0 0  9998
2 39741  55.7626  78.9347 0013964 286.6267  73.2107  2.00554602 33353
GPS BIIF-7  (PRN 09)    
1 40105U 14045A   18340.38710498  .00000073  00000-0  00000+0 0  9999
2 40105  54.5776 198.3040 0012002  97.2962 262.9322  2.00551319 31816
GPS BIIF-8  (PRN 03)    
1 40294U 14068A   18340.76068795  .00000027  00000-0  00000+0 0  9990
2 40294  55.1187 139.1108 0017291  34.7619 325.3354  2.00569051 30052
GPS BIIF-9  (PRN 26)    
1 40534U 15013A   18340.40090113 -.00000082  00000-0  00000+0 0  9990
2 40534  54.6435 317.8166 0033171 359.1250   0.8572  2.00553364 27107
GPS BIIF-10  (PRN 08)   
1 40730U 15033A   18340.05755739 -.00000085  00000-0  00000+0 0  9996
2 40730  55.5776  18.3337 0040004 333.4181  26.4363  2.00565168 24853
GPS BIIF-11  (PRN 10)   
1 41019U 15062A   18340.11036392  .00000033  00000-0  00000+0 0  9995
2 41019  55.1217 138.9456 0041516 201.8084 158.0030  2.00564589 22677
GPS BIIF-12  (PRN 32)   
1 41328U 16007A   18340.20171574  .00000074  00000-0  00000+0 0  9995
2 41328  54.8248 198.6490 0024738 214.3075 145.6245  2.00556584 20738
